[
    {
        "Altitude(m)": 604983.0529666872,
        "Argument of Periapsis(deg)": 0.0,
        "Eccentricity": 0.0,
        "Inclination(deg)": 60.0,
        "Latitude(deg)": -0.09264582875213152,
        "Longitude(deg)": -169.91608378787822,
        "Mean Anomaly(deg)": 179.99999999999997,
        "RAAN(deg)": 110.00000000000001,
        "Satellite Name": "Test1 495",
        "Satellite Number": 495,
        "Semi-Major Axis(m)": 6980739.136638005,
        "Time(s)": 0
    },
    {
        "Altitude(m)": 605055.3324167466,
        "Argument of Periapsis(deg)": 0.00010418945913296404,
        "Eccentricity": 0.0,
        "Inclination(deg)": 60.0,
        "Latitude(deg)": -0.6330562562024217,
        "Longitude(deg)": -169.6479599782186,
        "Mean Anomaly(deg)": 180.62010614546182,
        "RAAN(deg)": 109.99957995086025,
        "Satellite Name": "Test1 495",
        "Satellite Number": 495,
        "Semi-Major Axis(m)": 6980739.136638005,
        "Time(s)": 10
    },
    {
        "Altitude(m)": 605130.8209354173,
        "Argument of Periapsis(deg)": 0.0002083789182659281,
        "Eccentricity": 0.0,
        "Inclination(deg)": 60.0,
        "Latitude(deg)": -1.173435763439976,
        "Longitude(deg)": -169.37977853154774,
        "Mean Anomaly(deg)": 181.24021229092364,
        "RAAN(deg)": 109.99915990172053,
        "Satellite Name": "Test1 495",
        "Satellite Number": 495,
        "Semi-Major Axis(m)": 6980739.136638005,
        "Time(s)": 20
    },
    {
        "Altitude(m)": 605209.507559378,
        "Argument of Periapsis(deg)": 0.00031256837739889213,
        "Eccentricity": 0.0,
        "Inclination(deg)": 60.0,
        "Latitude(deg)": -1.713767270115843,
        "Longitude(deg)": -169.11148506020598,
        "Mean Anomaly(deg)": 181.86031843638548,
        "RAAN(deg)": 109.99873985258077,
        "Satellite Name": "Test1 495",
        "Satellite Number": 495,
        "Semi-Major Axis(m)": 6980739.136638005,
        "Time(s)": 30
    },
    {
        "Altitude(m)": 605291.3798013731,
        "Argument of Periapsis(deg)": 0.0004167578365318562,
        "Eccentricity": 0.0,
        "Inclination(deg)": 60.0,
        "Latitude(deg)": -2.2540336778311856,
        "Longitude(deg)": -168.8430246087424,
        "Mean Anomaly(deg)": 182.48042458184733,
        "RAAN(deg)": 109.99831980344105,
        "Satellite Name": "Test1 495",
        "Satellite Number": 495,
        "Semi-Major Axis(m)": 6980739.136638005,
        "Time(s)": 40
    },
    {
        "Altitude(m)": 605376.4236535426,
        "Argument of Periapsis(deg)": 0.0005209472956648203,
        "Eccentricity": 0.0,
        "Inclination(deg)": 60.0,
        "Latitude(deg)": -2.7942178602238648,
        "Longitude(deg)": -168.57434263049436,
        "Mean Anomaly(deg)": 183.10053072730915,
        "RAAN(deg)": 109.9978997543013,
        "Satellite Name": "Test1 495",
        "Satellite Number": 495,
        "Semi-Major Axis(m)": 6980739.136638005,
        "Time(s)": 50
    },
    {
        "Altitude(m)": 605464.6235914902,
        "Argument of Periapsis(deg)": 0.0006251367547977843,
        "Eccentricity": 0.0,
        "Inclination(deg)": 60.0,
        "Latitude(deg)": -3.3343026530173594,
        "Longitude(deg)": -168.3053844512106,
        "Mean Anomaly(deg)": 183.72063687277102,
        "RAAN(deg)": 109.99747970516154,
        "Satellite Name": "Test1 495",
        "Satellite Number": 495,
        "Semi-Major Axis(m)": 6980739.136638005,
        "Time(s)": 60
    },
    {
        "Altitude(m)": 605555.9625791034,
        "Argument of Periapsis(deg)": 0.0007293262139307483,
        "Eccentricity": 0.0,
        "Inclination(deg)": 60.0,
        "Latitude(deg)": -3.874270844016824,
        "Longitude(deg)": -168.0360947325626,
        "Mean Anomaly(deg)": 184.34074301823284,
        "RAAN(deg)": 109.99705965602182,
        "Satellite Name": "Test1 495",
        "Satellite Number": 495,
        "Semi-Major Axis(m)": 6980739.136638005,
        "Time(s)": 70
    },
    {
        "Altitude(m)": 605650.4220741044,
        "Argument of Periapsis(deg)": 0.0008335156730637124,
        "Eccentricity": 0.0,
        "Inclination(deg)": 60.0,
        "Latitude(deg)": -4.4141051630350585,
        "Longitude(deg)": -167.7664184483872,
        "Mean Anomaly(deg)": 184.96084916369463,
        "RAAN(deg)": 109.99663960688206,
        "Satellite Name": "Test1 495",
        "Satellite Number": 495,
        "Semi-Major Axis(m)": 6980739.136638005,
        "Time(s)": 80
    },
    {
        "Altitude(m)": 605747.9820343681,
        "Argument of Periapsis(deg)": 0.0009377051321966765,
        "Eccentricity": 0.0,
        "Inclination(deg)": 60.0,
        "Latitude(deg)": -4.953788271740499,
        "Longitude(deg)": -167.49630034788794,
        "Mean Anomaly(deg)": 185.58095530915648,
        "RAAN(deg)": 109.99621955774234,
        "Satellite Name": "Test1 495",
        "Satellite Number": 495,
        "Semi-Major Axis(m)": 6980739.136638005,
        "Time(s)": 90
    },
    {
        "Altitude(m)": 605848.620924958,
        "Argument of Periapsis(deg)": 0.0010418945913296407,
        "Eccentricity": 0.0,
        "Inclination(deg)": 60.0,
        "Latitude(deg)": -5.49330275341166,
        "Longitude(deg)": -167.22568441863535,
        "Mean Anomaly(deg)": 186.2010614546183,
        "RAAN(deg)": 109.99579950860257,
        "Satellite Name": "Test1 495",
        "Satellite Number": 495,
        "Semi-Major Axis(m)": 6980739.136638005,
        "Time(s)": 100
    },
    {
        "Altitude(m)": 605952.315725885,
        "Argument of Periapsis(deg)": 0.0011460840504626045,
        "Eccentricity": 0.0,
        "Inclination(deg)": 60.0,
        "Latitude(deg)": -6.032631102580371,
        "Longitude(deg)": -166.95451486221478,
        "Mean Anomaly(deg)": 186.82116760008014,
        "RAAN(deg)": 109.99537945946282,
        "Satellite Name": "Test1 495",
        "Satellite Number": 495,
        "Semi-Major Axis(m)": 6980739.136638005,
        "Time(s)": 110
    },
    {
        "Altitude(m)": 606059.0419406549,
        "Argument of Periapsis(deg)": 0.0012502735095955685,
        "Eccentricity": 0.0,
        "Inclination(deg)": 60.0,
        "Latitude(deg)": -6.57175571455543,
        "Longitude(deg)": -166.68273555674358,
        "Mean Anomaly(deg)": 187.441273745542,
        "RAAN(deg)": 109.99495941032308,
        "Satellite Name": "Test1 495",
        "Satellite Number": 495,
        "Semi-Major Axis(m)": 6980739.136638005,
        "Time(s)": 120
    },
    {
        "Altitude(m)": 606168.7736054667,
        "Argument of Periapsis(deg)": 0.0013544629687285324,
        "Eccentricity": 0.0,
        "Inclination(deg)": 60.0,
        "Latitude(deg)": -7.110658874810426,
        "Longitude(deg)": -166.41028951910258,
        "Mean Anomaly(deg)": 188.06137989100384,
        "RAAN(deg)": 109.99453936118334,
        "Satellite Name": "Test1 495",
        "Satellite Number": 495,
        "Semi-Major Axis(m)": 6980739.136638005,
        "Time(s)": 130
    },
    {
        "Altitude(m)": 606281.4832991749,
        "Argument of Periapsis(deg)": 0.0014586524278614966,
        "Eccentricity": 0.0,
        "Inclination(deg)": 60.0,
        "Latitude(deg)": -7.649322748218046,
        "Longitude(deg)": -166.1371198797258,
        "Mean Anomaly(deg)": 188.68148603646563,
        "RAAN(deg)": 109.9941193120436,
        "Satellite Name": "Test1 495",
        "Satellite Number": 495,
        "Semi-Major Axis(m)": 6980739.136638005,
        "Time(s)": 140
    },
    {
        "Altitude(m)": 606397.1421539763,
        "Argument of Periapsis(deg)": 0.0015628418869944607,
        "Eccentricity": 0.0,
        "Inclination(deg)": 60.0,
        "Latitude(deg)": -8.187729368121625,
        "Longitude(deg)": -165.8631693441733,
        "Mean Anomaly(deg)": 189.30159218192748,
        "RAAN(deg)": 109.99369926290386,
        "Satellite Name": "Test1 495",
        "Satellite Number": 495,
        "Semi-Major Axis(m)": 6980739.136638005,
        "Time(s)": 150
    },
    {
        "Altitude(m)": 606515.7198667701,
        "Argument of Periapsis(deg)": 0.0016670313461274247,
        "Eccentricity": 0.0,
        "Inclination(deg)": 60.0,
        "Latitude(deg)": -8.72586062522646,
        "Longitude(deg)": -165.58837965433062,
        "Mean Anomaly(deg)": 189.9216983273893,
        "RAAN(deg)": 109.99327921376411,
        "Satellite Name": "Test1 495",
        "Satellite Number": 495,
        "Semi-Major Axis(m)": 6980739.136638005,
        "Time(s)": 160
    },
    {
        "Altitude(m)": 606637.1847112557,
        "Argument of Periapsis(deg)": 0.0017712208052603888,
        "Eccentricity": 0.0,
        "Inclination(deg)": 60.0,
        "Latitude(deg)": -9.263698256293411,
        "Longitude(deg)": -165.31269256207867,
        "Mean Anomaly(deg)": 190.54180447285114,
        "RAAN(deg)": 109.99285916462438,
        "Satellite Name": "Test1 495",
        "Satellite Number": 495,
        "Semi-Major Axis(m)": 6980739.136638005,
        "Time(s)": 170
    },
    {
        "Altitude(m)": 606761.5035507001,
        "Argument of Periapsis(deg)": 0.001875410264393353,
        "Eccentricity": 0.0,
        "Inclination(deg)": 60.0,
        "Latitude(deg)": -9.801223832623819,
        "Longitude(deg)": -165.03604928965908,
        "Mean Anomaly(deg)": 191.16191061831293,
        "RAAN(deg)": 109.99243911548463,
        "Satellite Name": "Test1 495",
        "Satellite Number": 495,
        "Semi-Major Axis(m)": 6980739.136638005,
        "Time(s)": 180
    },
    {
        "Altitude(m)": 606888.6418514275,
        "Argument of Periapsis(deg)": 0.0019795997235263173,
        "Eccentricity": 0.0,
        "Inclination(deg)": 60.0,
        "Latitude(deg)": -10.338418748318258,
        "Longitude(deg)": -164.7583899895773,
        "Mean Anomaly(deg)": 191.78201676377475,
        "RAAN(deg)": 109.9920190663449,
        "Satellite Name": "Test1 495",
        "Satellite Number": 495,
        "Semi-Major Axis(m)": 6980739.136638005,
        "Time(s)": 190
    }
]